STARLINK-35509          
1 66199U 25243Y   25323.91668981 -.00572681  00000+0 -10929-1 0  9992
2 66199  53.1602  35.8876 0000965  88.2450  12.4847 15.49654898  4913
STARLINK-35551          
1 66200U 25243Z   25323.91668981 -.00531541  00000+0 -10100-1 0  9996
2 66200  53.1600  35.8952 0000621  66.1472  30.7439 15.49631735  4912
STARLINK-35543          
1 66201U 25243AA  25323.91668981 -.00531529  00000+0 -10100-1 0  9993
2 66201  53.1600  35.8986 0000779  67.9561  27.0217 15.49629063  4972
STARLINK-35534          
1 66202U 25243AB  25323.91668981 -.00531166  00000+0 -10093-1 0  9992
2 66202  53.1600  35.9028 0000799  69.8108  23.2500 15.49628944  4915
STARLINK-35548          
1 66203U 25243AC  25323.91668981 -.00534521  00000+0 -10160-1 0  9996
2 66203  53.1599  35.9074 0000767  66.8911  24.2527 15.49630792  4978
STARLINK-35490          
1 66204U 25243AD  25323.91668981 -.00533106  00000+0 -10132-1 0  9994
2 66204  53.1598  35.9149 0000869  67.9181  19.3918 15.49630398  4864
STARLINK-35748          
1 66206U 25244A   25323.91668981  .00044483  00000+0  11170-2 0  9994
2 66206  53.1607  23.7188 0001217  83.2591  57.3855 15.39579650  4593
STARLINK-35747          
1 66207U 25244B   25323.65897291  .00196757  00000+0  13127-2 0  9990
2 66207  53.1600  23.7837 0001249  87.3843 272.7320 15.74257780  4774
STARLINK-35751          
1 66208U 25244C   25323.91668981  .00051668  00000+0  12945-2 0  9990
2 66208  53.1605  23.7149 0001776  77.0990  65.3561 15.39581727  4708
STARLINK-35750          
1 66209U 25244D   25323.91668981 -.02264504  00000+0 -58675-1 0  9999
2 66209  53.1605  23.6658 0001112  87.7654  78.5884 15.41880338  4675
STARLINK-35740          
1 66210U 25244E   25323.91668981 -.02272737  00000+0 -58882-1 0  9998
2 66210  53.1604  23.6701 0001172  89.9855  74.5173 15.41895240  4538
STARLINK-35723          
1 66211U 25244F   25323.91668981 -.02080325  00000+0 -49545-1 0  9995
2 66211  53.1604  23.6342 0001438  77.3755 104.8285 15.44631564  4592
