CCSDS_OMM_VERS = 2.0
CREATION_DATE  = 
ORIGINATOR     = 

OBJECT_NAME    = STARLINK-35509
OBJECT_ID      = 2025-243Y
CENTER_NAME    = EARTH
REF_FRAME      = TEME
TIME_SYSTEM    = UTC
MEAN_ELEMENT_THEORY = SGP/SGP4

EPOCH          = 2025-11-19T22:00:01.999584
MEAN_MOTION    = 15.49654898
ECCENTRICITY   = .00009654
INCLINATION    = 53.1602
RA_OF_ASC_NODE = 35.8876
ARG_OF_PERICENTER = 88.2450
MEAN_ANOMALY   = 12.4847

EPHEMERIS_TYPE = 0
CLASSIFICATION_TYPE = U
NORAD_CAT_ID   = 66199
ELEMENT_SET_NO = 999
REV_AT_EPOCH   = 491
BSTAR          = -.10929296E-1
MEAN_MOTION_DOT = -.572681E-2
MEAN_MOTION_DDOT = 0

CCSDS_OMM_VERS = 2.0
CREATION_DATE  = 
ORIGINATOR     = 

OBJECT_NAME    = STARLINK-35551
OBJECT_ID      = 2025-243Z
CENTER_NAME    = EARTH
REF_FRAME      = TEME
TIME_SYSTEM    = UTC
MEAN_ELEMENT_THEORY = SGP/SGP4

EPOCH          = 2025-11-19T22:00:01.999584
MEAN_MOTION    = 15.49631735
ECCENTRICITY   = .00006212
INCLINATION    = 53.1600
RA_OF_ASC_NODE = 35.8952
ARG_OF_PERICENTER = 66.1472
MEAN_ANOMALY   = 30.7439

EPHEMERIS_TYPE = 0
CLASSIFICATION_TYPE = U
NORAD_CAT_ID   = 66200
ELEMENT_SET_NO = 999
REV_AT_EPOCH   = 491
BSTAR          = -.10099722E-1
MEAN_MOTION_DOT = -.531541E-2
MEAN_MOTION_DDOT = 0

CCSDS_OMM_VERS = 2.0
CREATION_DATE  = 
ORIGINATOR     = 

OBJECT_NAME    = STARLINK-35543
OBJECT_ID      = 2025-243AA
CENTER_NAME    = EARTH
REF_FRAME      = TEME
TIME_SYSTEM    = UTC
MEAN_ELEMENT_THEORY = SGP/SGP4

EPOCH          = 2025-11-19T22:00:01.999584
MEAN_MOTION    = 15.49629063
ECCENTRICITY   = .00007794
INCLINATION    = 53.1600
RA_OF_ASC_NODE = 35.8986
ARG_OF_PERICENTER = 67.9561
MEAN_ANOMALY   = 27.0217

EPHEMERIS_TYPE = 0
CLASSIFICATION_TYPE = U
NORAD_CAT_ID   = 66201
ELEMENT_SET_NO = 999
REV_AT_EPOCH   = 497
BSTAR          = -.10100148E-1
MEAN_MOTION_DOT = -.531529E-2
MEAN_MOTION_DDOT = 0

CCSDS_OMM_VERS = 2.0
CREATION_DATE  = 
ORIGINATOR     = 

OBJECT_NAME    = STARLINK-35534
OBJECT_ID      = 2025-243AB
CENTER_NAME    = EARTH
REF_FRAME      = TEME
TIME_SYSTEM    = UTC
MEAN_ELEMENT_THEORY = SGP/SGP4

EPOCH          = 2025-11-19T22:00:01.999584
MEAN_MOTION    = 15.49628944
ECCENTRICITY   = .00007993
INCLINATION    = 53.1600
RA_OF_ASC_NODE = 35.9028
ARG_OF_PERICENTER = 69.8108
MEAN_ANOMALY   = 23.2500

EPHEMERIS_TYPE = 0
CLASSIFICATION_TYPE = U
NORAD_CAT_ID   = 66202
ELEMENT_SET_NO = 999
REV_AT_EPOCH   = 491
BSTAR          = -.10092796E-1
MEAN_MOTION_DOT = -.531166E-2
MEAN_MOTION_DDOT = 0

CCSDS_OMM_VERS = 2.0
CREATION_DATE  = 
ORIGINATOR     = 

OBJECT_NAME    = STARLINK-35548
OBJECT_ID      = 2025-243AC
CENTER_NAME    = EARTH
REF_FRAME      = TEME
TIME_SYSTEM    = UTC
MEAN_ELEMENT_THEORY = SGP/SGP4

EPOCH          = 2025-11-19T22:00:01.999584
MEAN_MOTION    = 15.49630792
ECCENTRICITY   = .00007672
INCLINATION    = 53.1599
RA_OF_ASC_NODE = 35.9074
ARG_OF_PERICENTER = 66.8911
MEAN_ANOMALY   = 24.2527

EPHEMERIS_TYPE = 0
CLASSIFICATION_TYPE = U
NORAD_CAT_ID   = 66203
ELEMENT_SET_NO = 999
REV_AT_EPOCH   = 497
BSTAR          = -.10160306E-1
MEAN_MOTION_DOT = -.534521E-2
MEAN_MOTION_DDOT = 0

CCSDS_OMM_VERS = 2.0
CREATION_DATE  = 
ORIGINATOR     = 

OBJECT_NAME    = STARLINK-35490
OBJECT_ID      = 2025-243AD
CENTER_NAME    = EARTH
REF_FRAME      = TEME
TIME_SYSTEM    = UTC
MEAN_ELEMENT_THEORY = SGP/SGP4

EPOCH          = 2025-11-19T22:00:01.999584
MEAN_MOTION    = 15.49630398
ECCENTRICITY   = .00008694
INCLINATION    = 53.1598
RA_OF_ASC_NODE = 35.9149
ARG_OF_PERICENTER = 67.9181
MEAN_ANOMALY   = 19.3918

EPHEMERIS_TYPE = 0
CLASSIFICATION_TYPE = U
NORAD_CAT_ID   = 66204
ELEMENT_SET_NO = 999
REV_AT_EPOCH   = 486
BSTAR          = -.1013151E-1
MEAN_MOTION_DOT = -.533106E-2
MEAN_MOTION_DDOT = 0

CCSDS_OMM_VERS = 2.0
CREATION_DATE  = 
ORIGINATOR     = 

OBJECT_NAME    = STARLINK-35748
OBJECT_ID      = 2025-244A
CENTER_NAME    = EARTH
REF_FRAME      = TEME
TIME_SYSTEM    = UTC
MEAN_ELEMENT_THEORY = SGP/SGP4

EPOCH          = 2025-11-19T22:00:01.999584
MEAN_MOTION    = 15.39579650
ECCENTRICITY   = .00012173
INCLINATION    = 53.1607
RA_OF_ASC_NODE = 23.7188
ARG_OF_PERICENTER = 83.2591
MEAN_ANOMALY   = 57.3855

EPHEMERIS_TYPE = 0
CLASSIFICATION_TYPE = U
NORAD_CAT_ID   = 66206
ELEMENT_SET_NO = 999
REV_AT_EPOCH   = 459
BSTAR          = .11170412E-2
MEAN_MOTION_DOT = .44483E-3
MEAN_MOTION_DDOT = 0

CCSDS_OMM_VERS = 2.0
CREATION_DATE  = 
ORIGINATOR     = 

OBJECT_NAME    = STARLINK-35747
OBJECT_ID      = 2025-244B
CENTER_NAME    = EARTH
REF_FRAME      = TEME
TIME_SYSTEM    = UTC
MEAN_ELEMENT_THEORY = SGP/SGP4

EPOCH          = 2025-11-19T15:48:55.259424
MEAN_MOTION    = 15.74257780
ECCENTRICITY   = .00012492
INCLINATION    = 53.1600
RA_OF_ASC_NODE = 23.7837
ARG_OF_PERICENTER = 87.3843
MEAN_ANOMALY   = 272.7320

EPHEMERIS_TYPE = 0
CLASSIFICATION_TYPE = U
NORAD_CAT_ID   = 66207
ELEMENT_SET_NO = 999
REV_AT_EPOCH   = 477
BSTAR          = .13126995E-2
MEAN_MOTION_DOT = .196757E-2
MEAN_MOTION_DDOT = 0

CCSDS_OMM_VERS = 2.0
CREATION_DATE  = 
ORIGINATOR     = 

OBJECT_NAME    = STARLINK-35751
OBJECT_ID      = 2025-244C
CENTER_NAME    = EARTH
REF_FRAME      = TEME
TIME_SYSTEM    = UTC
MEAN_ELEMENT_THEORY = SGP/SGP4

EPOCH          = 2025-11-19T22:00:01.999584
MEAN_MOTION    = 15.39581727
ECCENTRICITY   = .00017761
INCLINATION    = 53.1605
RA_OF_ASC_NODE = 23.7149
ARG_OF_PERICENTER = 77.0990
MEAN_ANOMALY   = 65.3561

EPHEMERIS_TYPE = 0
CLASSIFICATION_TYPE = U
NORAD_CAT_ID   = 66208
ELEMENT_SET_NO = 999
REV_AT_EPOCH   = 470
BSTAR          = .12945386E-2
MEAN_MOTION_DOT = .51668E-3
MEAN_MOTION_DDOT = 0

CCSDS_OMM_VERS = 2.0
CREATION_DATE  = 
ORIGINATOR     = 

OBJECT_NAME    = STARLINK-35750
OBJECT_ID      = 2025-244D
CENTER_NAME    = EARTH
REF_FRAME      = TEME
TIME_SYSTEM    = UTC
MEAN_ELEMENT_THEORY = SGP/SGP4

EPOCH          = 2025-11-19T22:00:01.999584
MEAN_MOTION    = 15.41880338
ECCENTRICITY   = .00011121
INCLINATION    = 53.1605
RA_OF_ASC_NODE = 23.6658
ARG_OF_PERICENTER = 87.7654
MEAN_ANOMALY   = 78.5884

EPHEMERIS_TYPE = 0
CLASSIFICATION_TYPE = U
NORAD_CAT_ID   = 66209
ELEMENT_SET_NO = 999
REV_AT_EPOCH   = 467
BSTAR          = -.58674685E-1
MEAN_MOTION_DOT = -.2264504E-1
MEAN_MOTION_DDOT = 0

CCSDS_OMM_VERS = 2.0
CREATION_DATE  = 
ORIGINATOR     = 

OBJECT_NAME    = STARLINK-35740
OBJECT_ID      = 2025-244E
CENTER_NAME    = EARTH
REF_FRAME      = TEME
TIME_SYSTEM    = UTC
MEAN_ELEMENT_THEORY = SGP/SGP4

EPOCH          = 2025-11-19T22:00:01.999584
MEAN_MOTION    = 15.41895240
ECCENTRICITY   = .00011725
INCLINATION    = 53.1604
RA_OF_ASC_NODE = 23.6701
ARG_OF_PERICENTER = 89.9855
MEAN_ANOMALY   = 74.5173

EPHEMERIS_TYPE = 0
CLASSIFICATION_TYPE = U
NORAD_CAT_ID   = 66210
ELEMENT_SET_NO = 999
REV_AT_EPOCH   = 453
BSTAR          = -.58882317E-1
MEAN_MOTION_DOT = -.2272737E-1
MEAN_MOTION_DDOT = 0

CCSDS_OMM_VERS = 2.0
CREATION_DATE  = 
ORIGINATOR     = 

OBJECT_NAME    = STARLINK-35723
OBJECT_ID      = 2025-244F
CENTER_NAME    = EARTH
REF_FRAME      = TEME
TIME_SYSTEM    = UTC
MEAN_ELEMENT_THEORY = SGP/SGP4

EPOCH          = 2025-11-19T22:00:01.999584
MEAN_MOTION    = 15.44631564
ECCENTRICITY   = .0001438
INCLINATION    = 53.1604
RA_OF_ASC_NODE = 23.6342
ARG_OF_PERICENTER = 77.3755
MEAN_ANOMALY   = 104.8285

EPHEMERIS_TYPE = 0
CLASSIFICATION_TYPE = U
NORAD_CAT_ID   = 66211
ELEMENT_SET_NO = 999
REV_AT_EPOCH   = 459
BSTAR          = -.49544614E-1
MEAN_MOTION_DOT = -.2080325E-1
MEAN_MOTION_DDOT = 0

